#dP2020  2 19  0  0  0.00000000      96 __u+U ITR00 FIT  IAC
## 2093 259200.00000000   900.00000000 58898 0.0000000000000
+  106   C06C07C08C09C10C11C12C13C14C16C19C20C21C22C23C24C25
+        C26C27C28C29C30C32C33C34C35C36C37E01E02E03E04E05E07
+        E08E09E11E12E13E14E15E18E19E21E24E25E26E27E30E31E33
+        E36G01G02G03G04G05G06G07G08G09G10G11G12G13G14G15G16
+        G17G18G19G20G21G22G23G24G25G26G27G28G29G30G31G32R01
+        R02R03R04R05R07R08R09R11R12R13R14R15R16R17R18R19R20
+        R21R22R23R26  0  0  0  0  0  0  0  0  0  0  0  0  0
++         8  8  8  8  8  8  8  8  8  8  7  8  8  7  8  8  8
++         8  8  8  7  7  8  8  8  8  8  8  4  4  4  4  4  4
++         4  4  4  4  4  4  4  4  4  4  4  4  5  4  4  4  5
++         4  4  3  3  4  4  3  4  4  4  4  4  3  4  4  3  4
++         3  5  3  4  4  3  4  3  4  4  4  3  4  3  3  3  6
++         5  5  5  5  5  6  5  5  5  6  6  6  6  6  6  6  6
++         5  5  5  8  0  0  0  0  0  0  0  0  0  0  0  0  0
%c M  cc GPS ccc cccc cccc cccc cccc ccccc ccccc ccccc ccccc
%c cc cc ccc ccc cccc cccc cccc cccc ccccc ccccc ccccc ccccc
%f  0.0000000  0.000000000  0.00000000000  0.000000000000000
%f  0.0000000  0.000000000  0.00000000000  0.000000000000000
%i    0    0    0    0      0      0      0      0         0
%i    0    0    0    0      0      0      0      0         0
/* INFORMATION & ANALYSIS CENTER (IAC)      ULTRA-RAPID DATA
/* S/V CLOCKS ARE ALIGNED TO GNSS TIME                      
/* G:C1WC2W R:C1PC2P E:C1XC5X C:C2IC6I J:C1CC2S             
/* PCV:IGS14_2091 OL/AL:FES2004  NONE     YN ORB:CoN CLK:CoN
*  2020 02 19  3 15  0.00000000
PC06 -21142.729119  24836.934986  26845.417195    244.928378
PC07 -15471.513005  38606.643740   8499.208302    -82.509959
PC08  -6326.765773  23103.187234 -34528.634271   -123.095595
PC09  -7233.631480  25404.441141  33026.783221    344.200815
PC10  -6085.964831  41774.718687  -3590.964970   -674.551914
PC11 -15007.621784  12111.140733 -20123.731843   -190.846974
PC12 -27298.722053   1847.150898  -5510.091274    320.878891
PC13   5984.628050  31152.908479 -27537.616292    275.395717
PC14 -15599.070838  23165.393006   -594.487617    166.874095
PC16 -18506.470180  25025.161151  28398.610401   -771.186409
PC19   9339.623938 -24946.680802  -8272.947055    329.759949
PC20  19197.091070 -18181.146812   8902.836885   -733.212332
PC21 -17971.490374    368.723129 -21332.345174    -89.856633
PC22  -6154.534219 -17306.266589 -20996.235556   -876.233895
PC23  13742.494690  24155.159902  -2500.315601   -895.258987
PC24 -13303.488927   9412.971788  22640.469920   -931.009334
PC25   1256.406142  24046.916322  14080.139485   -520.778504
PC26 -19198.735610  -9272.243659  18016.552665    576.674656
PC27  27328.438015   4533.541875  -3481.450021    280.987074
PC28  15438.641378  14044.261423 -18515.193913    271.926600
PC29   4814.439866 -15536.168828  22674.626773    189.735034
PC30  23067.704869  -8333.387834  13337.016010    274.201700
PC32  17983.440497   -467.145350  21346.592592   -873.866242
PC33  -9241.876286  25018.994792   8241.152598   -924.997257
PC34 -22785.254631   8519.645407 -13651.359997   -481.879297
PC35 -15736.489053 -13619.081062  18577.966523   -890.938571
PC36   -552.629433 -23990.050198 -14226.731318   -828.567389
PC37  18983.485166  10293.025994 -17651.327871   -877.486179
PE01  -1469.769710  29321.736740   3733.168402   -797.820302
PE02   1422.378200 -29349.444665  -3664.753647    113.726222
PE03   8553.989844 -21147.132223 -18859.154837   -267.867950
PE04  11631.952615  12811.858999  24016.955784   -468.725394
PE05  23967.179420 -17178.806004  -2577.658843   -404.181668
PE07 -25264.722254   3203.278689 -15090.376392   -342.973348
PE08 -11835.650257 -12470.518222 -24096.446089   6218.313764
PE09  25208.420720  -3502.351652  15105.064391   6151.676474
PE11  27259.824277   7605.223085   8711.256079   1331.180928
PE12  20561.328947  18493.488007 -10571.761454   5944.322099
PE13 -27287.215816  -7698.991948  -8478.162213    398.486167
PE14   4739.331673 -15326.456393  17049.367032   -910.548886
PE15 -20770.583639 -18323.101694  10448.395269    876.792636
PE18  -1828.562934  21120.887051 -24783.515501  -1008.006471
PE19 -10683.123213  21275.473091  17588.056561     -1.473874
PE21 -12497.730840  18118.516508  19783.451164   -583.465925
PE24  16396.305513   3979.975199 -24331.565480   5602.704945
PE25  12542.999197 -18028.734834 -19846.856934   -504.347103
PE26 -17656.402597   7690.669909 -22466.426330   3513.002709
PE27 -16367.186760  -3847.784010  24362.993413    279.350238
PE30 -10410.907452 -23651.599190  14441.895406   4132.024142
PE31  10607.379083  23447.802960 -14614.622930   -471.756526
PE33   2082.338218  18199.647907 -23238.744591   -470.229520
PE36  17797.923064  -7461.140701  22458.876009    596.474181
PG01  21462.765035  13566.139252   8142.232334   -299.562368
PG02 -10507.134050 -21047.048732  13051.743093   -407.368864
PG03  14382.791393   4635.339110  21787.542291    -97.900097
PG04  24167.146682   1904.936595  10888.680505    -50.864193
PG05  -3862.474547 -23128.685535 -12417.024218     -7.820287
PG06    687.429337 -17851.696149  19697.467167   -211.919708
PG07  17738.539546  -1864.254353 -19538.316371   -217.664565
PG08  16890.905179   8403.865820 -18765.743896    -24.261179
PG09  25663.948394  -6783.403881   1116.877938   -158.769265
PG10 -11525.740375  22306.259680  -8211.872003   -250.012366
PG11  21805.820000  13128.237455  -7467.998845   -357.142170
PG12 -12397.254554  -8692.079863  21613.275403    149.694948
PG13  -8522.335247 -13572.802506 -21316.853584    -11.804438
PG14  -6704.285481  15900.531601  20472.847182    -31.553791
PG15 -18437.314831  -7324.317513 -18136.739056   -250.591498
PG16   1193.407974  22969.634723 -13077.683349   -126.040411
PG17  16953.239136 -14084.637775  15207.282159    218.444566
PG18  19758.774678  17818.942637   -515.749599      3.305902
PG19   9991.525766 -14829.714014  19346.988649   -196.764069
PG20 -14556.868112  13998.455606 -17230.517422    527.870622
PG21 -15980.945811   4873.515797 -19797.222343    -39.079998
PG22  12438.602943  13466.557271  19476.961157   -784.787048
PG23  24753.982425    390.239055  10476.702911   -135.362311
PG24 -22181.774803 -13749.385062   5692.594978     -9.276080
PG25 -15852.354167   5199.787122  20369.595191    -12.614833
PG26  -3403.122575  26019.112952  -3259.728135    151.243030
PG27   5551.106839  13878.394041 -22089.023367   -215.230437
PG28  12354.399792 -22664.350002  -5965.042007    738.306279
PG29 -26176.912045   3978.322499   2176.509739    -36.562891
PG30   9464.420926 -12676.190071 -21291.440849   -156.526002
PG31    961.477730  19241.445327  18041.732615    -24.148713
PG32 -15658.265560  15421.247930  14880.945228    215.982532
PR01  16106.394946 -19520.512006  -3137.200849     57.304975
PR02   1615.275508 -15386.965376 -20260.926489    412.642428
PR03 -12517.748011  -2161.209504 -22072.461024     10.237535
PR04 -19237.003860  12317.874694 -11324.480026     39.227686
PR05 -15154.614215  19642.915573   5889.275816     45.271306
PR07  12949.220034   1640.129148  21956.918701    -33.380450
PR08  19327.271567 -12174.976948  11419.353751    -50.593559
PR09   8870.572603  23625.964055  -3930.399701    117.569724
PR11  10307.354584  -4324.856395 -22917.606366    -13.961925
PR12   2226.702334 -19681.523681 -16068.917440    106.962267
PR13  -7548.201243 -24363.456338    484.370010    -34.974038
PR14 -12536.179818 -14685.380876  16672.326083     48.290544
PR15 -10433.324548   3335.868936  23051.854096    105.960248
PR16  -1786.165937  19923.655607  15720.651266     -1.575258
PR17 -23002.226573  -8915.272636   6568.526770    302.204222
PR18 -23226.954253  -1107.309311 -10396.383196     25.618144
PR19 -11549.354669   6825.227756 -21687.801596    -79.789266
PR20   9176.280328  12095.816718 -20498.428760   -404.476487
PR21  23317.437170   8600.201885  -5689.582054   -105.852121
PR22  22081.461924   -209.695538  12891.100776    -14.556037
PR23   4838.258417  -9495.695037  23174.193164    287.313246
PR26   4951.624019  11567.067212 -22167.452304   -406.462671
EOF
